     2.01           GLONASS NAV DATA                        RINEX VERSION / TYPE
CCRINEXG V1.4 UX    CDDIS               26-APR-26 23:53     PGM / RUN BY / DATE 
IGS BROADCAST EPHEMERIS FILE                                COMMENT             
teqc  2019Feb25                         20260426  1:03:     COMMENT             
  2026     4    26    0.419095158577D-08                    CORR TO SYSTEM TIME 
    18                                                      LEAP SECONDS        
                                                            END OF HEADER       
 6 26  4 26 16 15  0.0-0.206101685762D-04 0.000000000000D+00 0.576000000000D+05
   -0.747138378906D+04-0.249657249451D+01 0.931322574616D-09 0.000000000000D+00
    0.136084121094D+05 0.120740127564D+01 0.186264514923D-08-0.400000000000D+01
    0.202423115234D+05-0.173534584045D+01-0.931322574616D-09 0.000000000000D+00
 7 26  4 26 16 15  0.0 0.120907090604D-03 0.909494701773D-12 0.587100000000D+05
    0.127072465820D+05-0.272119140625D+01 0.000000000000D+00 0.000000000000D+00
    0.525888281250D+04 0.111116123199D+01 0.186264514923D-08 0.500000000000D+01
    0.215388183594D+05 0.133279705048D+01-0.186264514923D-08 0.000000000000D+00
 8 26  4 26 16 15  0.0-0.443030148745D-05 0.000000000000D+00 0.576000000000D+05
    0.231425546875D+05-0.123769855499D+01-0.931322574616D-09 0.000000000000D+00
   -0.547328076172D+04 0.334688186645D+00 0.000000000000D+00 0.600000000000D+01
    0.933682666016D+04 0.328407382965D+01 0.000000000000D+00 0.000000000000D+00
 9 26  4 26 16 15  0.0 0.322350300848D-03 0.272848410532D-11 0.576300000000D+05
   -0.885084960938D+03 0.968332290649D-01 0.186264514923D-08 0.000000000000D+00
    0.254923745117D+05 0.223140716553D+00 0.372529029846D-08-0.200000000000D+01
   -0.156069921875D+04 0.352696609497D+01 0.000000000000D+00 0.000000000000D+00
13 26  4 26 16 15  0.0-0.686738640070D-04-0.000000000000D+00 0.576000000000D+05
    0.260150000000D+04-0.155066490173D+00-0.931322574616D-09 0.000000000000D+00
   -0.253718251953D+05 0.646896362305D-01-0.372529029846D-08-0.200000000000D+01
   -0.584206542969D+03-0.356164455414D+01 0.000000000000D+00 0.000000000000D+00
14 26  4 26 16 15  0.0 0.322563573718D-04 0.000000000000D+00 0.576000000000D+05
   -0.665463232422D+04 0.122251510620D+00-0.000000000000D+00 0.000000000000D+00
   -0.178360825195D+05-0.232022285461D+01-0.279396772385D-08-0.700000000000D+01
    0.169797421875D+05-0.239359378815D+01-0.186264514923D-08 0.000000000000D+00
15 26  4 26 16 15  0.0 0.568982213736D-04-0.000000000000D+00 0.576000000000D+05
   -0.111048608398D+05 0.329543113708D+00 0.931322574616D-09 0.000000000000D+00
   -0.943286132812D+02-0.312300777435D+01-0.931322574616D-09 0.000000000000D+00
    0.229852734375D+05 0.145346641541D+00-0.279396772385D-08 0.000000000000D+00
16 26  4 26 16 15  0.0 0.482806935906D-04 0.909494701773D-12 0.585300000000D+05
   -0.919957861328D+04 0.351715087891D+00 0.186264514923D-08 0.000000000000D+00
    0.181841660156D+05-0.207695770264D+01 0.186264514923D-08-0.100000000000D+01
    0.153813129883D+05 0.266409587860D+01-0.186264514923D-08 0.000000000000D+00
17 26  4 26 16 15  0.0 0.290505588055D-03 0.272848410532D-11 0.576000000000D+05
   -0.194700737305D+05 0.241275787353D+00 0.000000000000D+00 0.000000000000D+00
   -0.161973623047D+05 0.417154312134D+00-0.279396772385D-08 0.400000000000D+01
    0.322750439453D+04 0.354546737671D+01-0.931322574616D-09 0.000000000000D+00
21 26  4 26 16 15  0.0-0.302136875689D-03-0.363797880709D-11 0.576300000000D+05
    0.176603120117D+05-0.608638763428D+00 0.000000000000D+00 0.000000000000D+00
    0.171498286133D+05-0.702414512634D+00 0.372529029846D-08 0.400000000000D+01
   -0.663539453125D+04-0.344134902954D+01 0.931322574616D-09 0.000000000000D+00
22 26  4 26 16 15  0.0 0.122682191432D-03 0.181898940355D-11 0.576300000000D+05
    0.201878457031D+05 0.156181144714D+01 0.000000000000D+00 0.000000000000D+00
    0.728654541016D+04 0.106497097015D+01 0.279396772385D-08-0.300000000000D+01
    0.138130629883D+05-0.284765148163D+01-0.931322574616D-09 0.000000000000D+00
23 26  4 26 16 15  0.0-0.185074284673D-03-0.909494701773D-12 0.576000000000D+05
    0.126457836914D+05 0.242293834686D+01-0.000000000000D+00 0.000000000000D+00
   -0.289255468750D+04 0.179060459137D+01 0.000000000000D+00 0.300000000000D+01
    0.219495766602D+05-0.115884685516D+01-0.186264514923D-08 0.000000000000D+00
24 26  4 26 16 15  0.0-0.161960721016D-03-0.181898940355D-11 0.576000000000D+05
   -0.673989794922D+04 0.202697277069D+01-0.000000000000D+00 0.000000000000D+00
   -0.159537509766D+05 0.157132816315D+01-0.279396772385D-08 0.200000000000D+01
    0.187444970703D+05 0.206542682648D+01-0.186264514923D-08 0.000000000000D+00
27 26  4 26 16 15  0.0-0.265260227025D-03-0.909494701773D-12 0.576300000000D+05
   -0.229605712891D+04-0.269812774658D+01 0.931322574616D-09 0.100000000000D+01
    0.125678715820D+05 0.136967372894D+01 0.186264514923D-08-0.500000000000D+01
    0.220678442383D+05-0.106076717377D+01-0.186264514923D-08 0.000000000000D+00
 1 26  4 26 16 45  0.0 0.167307443917D-03 0.909494701773D-12 0.606000000000D+05
    0.207747163086D+05 0.113834381103D+00-0.186264514923D-08 0.000000000000D+00
   -0.146613344727D+05-0.297071456909D+00 0.000000000000D+00 0.100000000000D+01
   -0.187837158203D+04 0.357197475433D+01 0.000000000000D+00 0.000000000000D+00
 5 26  4 26 16 45  0.0 0.167114660144D-03 0.909494701773D-12 0.594300000000D+05
   -0.218006787109D+05 0.145645141602D-01 0.931322574616D-09 0.000000000000D+00
    0.132028740234D+05 0.249370574951D+00 0.000000000000D+00 0.100000000000D+01
    0.841497558594D+03-0.359731101990D+01 0.000000000000D+00 0.000000000000D+00
 6 26  4 26 16 45  0.0-0.206092372537D-04 0.000000000000D+00 0.594000000000D+05
   -0.114001459961D+05-0.184322166443D+01 0.931322574616D-09 0.000000000000D+00
    0.158885190430D+05 0.128450775147D+01 0.931322574616D-09-0.400000000000D+01
    0.163766469727D+05-0.253201293945D+01-0.931322574616D-09 0.000000000000D+00
 7 26  4 26 16 45  0.0 0.120908953249D-03 0.909494701773D-12 0.594000000000D+05
    0.778027734375D+04-0.270361995697D+01 0.931322574616D-09 0.000000000000D+00
    0.772580761719D+04 0.161530780792D+01 0.186264514923D-08 0.500000000000D+01
    0.230789545898D+05 0.367352485657D+00-0.186264514923D-08 0.000000000000D+00
 8 26  4 26 16 45  0.0-0.442937016487D-05 0.000000000000D+00 0.607500000000D+05
    0.203654384766D+05-0.180712985992D+01-0.000000000000D+00 0.000000000000D+00
   -0.437255517578D+04 0.907135963440D+00 0.931322574616D-09 0.600000000000D+01
    0.148130664062D+05 0.276146221161D+01-0.931322574616D-09 0.000000000000D+00
 9 26  4 26 16 45  0.0 0.322355888784D-03 0.272848410532D-11 0.594300000000D+05
   -0.702726074219D+03 0.663127899170D-01 0.186264514923D-08 0.000000000000D+00
    0.251022626953D+05-0.652973175049D+00 0.279396772385D-08-0.200000000000D+01
    0.476628369141D+04 0.345763206482D+01 0.000000000000D+00 0.000000000000D+00
10 26  4 26 16 45  0.0-0.483606941998D-03-0.545696821064D-11 0.608700000000D+05
    0.639764599609D+04 0.184819221497D+00 0.931322574616D-09 0.000000000000D+00
    0.217857719727D+05 0.157673549652D+01 0.372529029846D-08-0.700000000000D+01
   -0.115480917969D+05 0.308602142334D+01 0.931322574616D-09 0.000000000000D+00
13 26  4 26 16 45  0.0-0.686738640070D-04-0.000000000000D+00 0.594000000000D+05
    0.233205908203D+04-0.104090690613D+00-0.186264514923D-08 0.000000000000D+00
   -0.244550820312D+05 0.946470260620D+00-0.279396772385D-08-0.200000000000D+01
   -0.688979199219D+04-0.339909172058D+01 0.931322574616D-09 0.000000000000D+00
14 26  4 26 16 45  0.0 0.322563573718D-04 0.000000000000D+00 0.594000000000D+05
   -0.673260839844D+04-0.178758621216D+00-0.931322574616D-09 0.000000000000D+00
   -0.214344946289D+05-0.164446830749D+01-0.279396772385D-08-0.700000000000D+01
    0.120704838867D+05-0.302578639984D+01-0.931322574616D-09 0.000000000000D+00
15 26  4 26 16 45  0.0 0.568982213736D-04-0.000000000000D+00 0.594000000000D+05
   -0.109186591797D+05-0.120583534241D+00 0.000000000000D+00 0.000000000000D+00
   -0.569844970703D+04-0.305262470245D+01-0.186264514923D-08 0.000000000000D+00
    0.223570620117D+05-0.838887214661D+00-0.279396772385D-08 0.000000000000D+00
16 26  4 26 16 45  0.0 0.482825562358D-04 0.909494701773D-12 0.607200000000D+05
   -0.883590625000D+04 0.242862701416D-01 0.186264514923D-08 0.000000000000D+00
    0.138767451172D+05-0.267059040070D+01 0.931322574616D-09-0.100000000000D+01
    0.195218911133D+05 0.190672683716D+01-0.186264514923D-08 0.000000000000D+00
17 26  4 26 16 45  0.0 0.290512107313D-03 0.272848410532D-11 0.594000000000D+05
   -0.183241616211D+05 0.104133319855D+01-0.000000000000D+00 0.000000000000D+00
   -0.150858388672D+05 0.776544570923D+00-0.279396772385D-08 0.400000000000D+01
    0.940263769531D+04 0.327134323120D+01-0.931322574616D-09 0.000000000000D+00
18 26  4 26 16 45  0.0 0.258517451584D-03 0.909494701773D-12 0.599100000000D+05
   -0.227079477539D+05-0.892781257629D+00-0.000000000000D+00 0.000000000000D+00
   -0.944665136719D+04-0.283807754517D+00-0.279396772385D-08-0.300000000000D+01
   -0.666667724609D+04 0.344313430786D+01-0.000000000000D+00 0.000000000000D+00
22 26  4 26 16 45  0.0 0.122685916722D-03 0.181898940355D-11 0.594300000000D+05
    0.225638715820D+05 0.103772258759D+01 0.000000000000D+00 0.000000000000D+00
    0.863430126953D+04 0.447946548462D+00 0.279396772385D-08-0.300000000000D+01
    0.822025683594D+04-0.332632827759D+01 0.000000000000D+00 0.000000000000D+00
23 26  4 26 16 45  0.0-0.185076147318D-03-0.909494701773D-12 0.594000000000D+05
    0.169581728516D+05 0.231888771057D+01-0.000000000000D+00 0.000000000000D+00
   -0.181897460938D+03 0.121054458618D+01 0.931322574616D-09 0.300000000000D+01
    0.190411176758D+05-0.205174255371D+01-0.186264514923D-08 0.000000000000D+00
